[{"OBJECT_NAME":"HAWK-11C","OBJECT_ID":"2024-247E","EPOCH":"2026-03-09T12:17:35.407968","MEAN_MOTION":15.2884802,"ECCENTRICITY":0.00059001,"INCLINATION":45.0045,"RA_OF_ASC_NODE":114.8762,"ARG_OF_PERICENTER":329.704,"MEAN_ANOMALY":30.3502,"EPHEMERIS_TYPE":0,"CLASSIFICATION_TYPE":"U","NORAD_CAT_ID":62381,"ELEMENT_SET_NO":999,"REV_AT_EPOCH":6774,"BSTAR":0.00033290115,"MEAN_MOTION_DOT":9.223e-5,"MEAN_MOTION_DDOT":0},{"OBJECT_NAME":"STARLINK-36513","OBJECT_ID":"2026-005AB","EPOCH":"2026-03-09T22:00:01.999584","MEAN_MOTION":15.27514264,"ECCENTRICITY":0.00018207,"INCLINATION":43.0014,"RA_OF_ASC_NODE":236.558,"ARG_OF_PERICENTER":276.181,"MEAN_ANOMALY":53.517,"EPHEMERIS_TYPE":0,"CLASSIFICATION_TYPE":"U","NORAD_CAT_ID":67429,"ELEMENT_SET_NO":999,"REV_AT_EPOCH":588,"BSTAR":0.0026396053,"MEAN_MOTION_DOT":0.00072949,"MEAN_MOTION_DDOT":0}]
